NUSAT-1 (FRESCO)        
1 41557U 16033B   22323.17583850  .00018655  00000+0  47723-3 0  9994
2 41557  97.3897  61.5787 0010193 177.9181 274.0666 15.39424420361149
BEESAT-4                
1 41619U 16040W   22323.11794524  .00018130  00000+0  51334-3 0  9998
2 41619  97.1972   9.9024 0006404 283.8131  76.2401 15.36315338344427
CAS-2T & KS-1Q          
1 41847U 16066G   22322.80644211  .00000824  00000+0  13146-3 0  9991
2 41847  98.5336  27.1955 0363727 107.9841 256.1338 14.38908468316545
NAYIF-1 (EO-88)         
1 42017U 17008BX  22322.13298533  .00021445  00000+0  52301-3 0  9994
2 42017  97.2507  26.4051 0005182  64.6125 295.5658 15.40888839320687
ZHUHAI-1 02 (CAS-4B)    
1 42759U 17034B   22323.19052649  .00005065  00000+0  29182-3 0  9990
2 42759  43.0166 199.0751 0009374 195.9461 310.9531 15.13278727299789
ZHUHAI-1 01 (CAS-4A)    
1 42761U 17034D   22323.14958943  .00004749  00000+0  27376-3 0  9991
2 42761  43.0174 197.9748 0009952 197.1202 299.7880 15.13365917299782
MAX VALIER SAT          
1 42778U 17036P   22323.05015178  .00010721  00000+0  37146-3 0  9998
2 42778  97.1879 358.9422 0011464 129.3733 230.8526 15.29947521300518
RADFXSAT (FOX-1B)       
1 43017U 17073E   22322.25257833  .00004424  00000+0  32695-3 0  9990
2 43017  97.6543 210.0895 0245813  43.9498 318.0978 14.82608184269898
FOX-1D (AO-92)          
1 43137U 18004AC  22322.16396076  .00011803  00000+0  37275-3 0  9999
2 43137  97.3553  36.1307 0007528 165.7898 194.3557 15.32956184269867
DIWATA-2B               
1 43678U 18084H   22323.20520390  .00001259  00000+0  12833-3 0  9998
2 43678  97.9924  98.5218 0010790 129.9516 230.2673 14.92492245220934
ES'HAIL 2               
1 43700U 18090A   22323.08938201  .00000163  00000+0  00000+0 0  9993
2 43700   0.0182 286.8546 0001179 326.7732 222.4886  1.00269557 14826
FOX-1CLIFF (AO-95)      
1 43770U 18099N   22322.41540871  .00001738  00000+0  15451-3 0  9996
2 43770  97.6049  24.6934 0015226 116.0596 244.2195 14.97294215216044
ITASAT 1                
1 43786U 18099AE  22322.79957299  .00003014  00000+0  26402-3 0  9997
2 43786  97.6072  26.0611 0016409 108.8936 251.4067 14.97325045216141
JY1SAT (JO-97)          
1 43803U 18099AX  22323.15889326  .00002607  00000+0  22504-3 0  9999
2 43803  97.6030  26.2267 0015416 106.0198 254.2724 14.98019764216220
UWE-4                   
1 43880U 18111E   22322.24369820  .00002502  00000+0  21015-3 0  9990
2 43880  97.6581 225.8457 0011066 154.1447 206.0331 14.99174724212732
NEXUS (FO-99)           
1 43937U 19003F   22322.65635318  .00014459  00000+0  42400-3 0  9992
2 43937  97.1160 350.2739 0017119 327.0064  33.0110 15.35133951213596
PSAT2 (NO-104)          
1 44354U 19036R   22322.86346706  .00093367 -44926-5  49932-3 0  9999
2 44354  28.5196 172.5452 0153306 297.3079  61.1991 15.63657170188649
JAISAT-1                
1 44419U 19038F   22322.43579447  .00009825  00000+0  45387-3 0  9990
2 44419  97.6546 294.2257 0016611 326.0390  33.9780 15.20284482186427
DUCHIFAT-3              
1 44854U 19089C   22323.20380244  .00005212  00000+0  39210-3 0  9994
2 44854  36.9639 262.2027 0007062  26.6837 118.1940 15.02354761161209
CAS-6 (TIANQIN 1)       
1 44881U 19093C   22323.21330593  .00000694  00000+0  94152-4 0  9998
2 44881  97.8819  40.1246 0016026  46.2564 313.9964 14.81935873157690
RS-44 & BREEZE-KM R/B   
1 44909U 19096E   22322.75675399  .00000036  00000+0  10485-3 0  9992
2 44909  82.5178 127.7789 0216705 319.1550  39.3480 12.79716659135240
ORBITAL FACTORY 2 (OF-2)
1 45113U 19071C   22323.19628802  .00050516  00000+0  69565-3 0  9990
2 45113  51.6356  13.0005 0011337  19.6384 340.5042 15.56663112157374
HUSKYSAT-1 (HO-107)     
1 45119U 19071J   22322.38842876  .00038629  00000+0  58902-3 0  9999
2 45119  51.6360  18.8204 0010921  13.3490 346.7787 15.54016190157219
BY70-2                  
1 45857U 20042B   22323.17297459  .00008814  00000+0  11127-2 0  9997
2 45857  97.9446  38.6620 0009142 336.9267  23.1355 14.82119517128354
SALSAT                  
1 46495U 20068K   22322.76171510  .00002058  00000+0  14778-3 0  9997
2 46495  97.7456 264.2865 0018172 111.5055 248.8111 15.05319256117391
BY70-3                  
1 46839U 20079N   22323.17820966  .00039556  00000+0  67408-3 0  9994
2 46839  97.1810  33.8878 0005548 129.2881 315.2330 15.51255102114143
RADFXSAT-2 (AO-109)     
1 47311U 21002C   22323.04706861  .00010169  00000+0  36766-3 0  9992
2 47311  60.6825 139.1829 0037730  71.6755 288.8433 15.28368051102074
UVSQ-SAT                
1 47438U 21006AB  22322.94007662  .00006302  00000+0  31454-3 0  9990
2 47438  97.4187  18.7964 0012939  97.9891 262.2812 15.17776306100698
DIY-1 (ARDUIQUBE)       
1 47963U 21022AH  22322.21774914  .00022505  00000+0  10528-2 0  9993
2 47963  97.5170 222.1884 0013836 334.1768  25.8774 15.19682378 90248
XW-3 (CAS-9)            
1 50466U 21131B   22323.21143735  .00000235  00000+0  91206-4 0  9998
2 50466  98.5704  40.3094 0005215  58.7852 301.3845 14.38578558 47160
TEVEL-3                 
1 50988U 22002E   22323.13111463  .00008702  00000+0  44497-3 0  9995
2 50988  97.4643  27.5980 0007930 244.8556 145.3804 15.16862588 46846
TEVEL-8                 
1 50989U 22002F   22323.14166058  .00008817  00000+0  45154-3 0  9995
2 50989  97.4658  27.6443 0008022 242.0243 148.2788 15.16808216 46845
TEVEL-5                 
1 50998U 22002Q   22323.16631243  .00009336  00000+0  46965-3 0  9998
2 50998  97.4638  27.8253 0009341 237.2417 149.8314 15.17406129 46860
TEVEL-6                 
1 50999U 22002R   22323.16548837  .00009364  00000+0  47102-3 0  9990
2 50999  97.4638  27.8213 0009194 238.1407 149.0488 15.17412100 46862
TEVEL-1                 
1 51013U 22002AF  22323.13605617  .00008774  00000+0  44901-3 0  9993
2 51013  97.4631  27.5705 0007882 244.1007 146.2768 15.16833627 46849
TEVEL-7                 
1 51062U 22002CG  22323.14367753  .00008911  00000+0  45633-3 0  9990
2 51062  97.4659  27.6271 0007887 242.8832 147.3359 15.16806413 46849
TEVEL-4                 
1 51063U 22002CH  22323.14522139  .00008870  00000+0  45446-3 0  9998
2 51063  97.4648  27.6235 0008014 243.7042 146.4606 15.16790017 46841
TEVEL-2                 
1 51069U 22002CP  22323.13288296  .00008816  00000+0  45082-3 0  9992
2 51069  97.4634  27.5802 0007974 244.9004 145.7083 15.16858409 46847
GREENCUBE               
1 53106U 22080B   22322.31180767 -.00000003  00000+0  00000+0 0  9993
2 53106  70.1750  32.9831 0008920 231.1348 128.8516  6.42557467  8201
YUZGU 9 (RS3S)          
1 53308U 98067TT  22323.11392993  .00109931  00000+0  10569-2 0  9993
2 53308  51.6364 283.8437 0008474  94.6088 265.5875 15.65688477 18823
YUZGU 7 (RS1S)          
1 53309U 98067TU  22323.16210798  .00115656  00000+0  10875-2 0  9992
2 53309  51.6362 283.4100 0008844  99.0309 261.1688 15.66215396 18787
YUZGU 11 (RS5S)         
1 53310U 98067TV  22323.17657629  .00109776  00000+0  10540-2 0  9998
2 53310  51.6361 283.5116 0008539  98.4976 261.6987 15.65721874 18813
YUZGU 12 (RS6S)         
1 53311U 98067TW  22323.14575008  .00120171  00000+0  11056-2 0  9991
2 53311  51.6360 283.2999 0008569  93.2017 266.9959 15.66741168 18839
TSIOLKOVSKY-RYAZAN 1 (*)
1 53312U 98067TX  22323.16192375  .00107149  00000+0  10197-2 0  9991
2 53312  51.6366 283.4149 0008853  99.8931 260.3064 15.65950878 18775
TSIOLKOVSKY-RYAZAN 2 (*)
1 53313U 98067TY  22323.15923605  .00113900  00000+0  10750-2 0  9996
2 53313  51.6370 283.3973 0008434 100.1836 260.0112 15.66133823 18821
YUZGU 10 (RS4S)         
1 53321U 98067TZ  22323.17115051  .00109326  00000+0  10390-2 0  9992
2 53321  51.6364 283.4757 0008633  96.8899 263.3079 15.65977980 18822
RS29S (SXC3-2110 CYCLO*)
1 53373U 22096D   22323.06696950  .00012446  00000+0  47327-3 0  9995
2 53373  97.4278 223.8545 0002315 106.1355   9.1242 15.26916909 15519
RS32S (SXC3-212 MONITO*)
1 53374U 22096E   22323.12441931  .00011975  00000+0  45431-3 0  9990
2 53374  97.4270 223.9245 0002651 102.3434   8.0778 15.27002212 15526
RS34S (SXC3-218 KUZBAS*)
1 53375U 22096F   22323.20611008  .00010212  00000+0  39221-3 0  9997
2 53375  97.4277 223.9874 0002503 108.0718  43.5733 15.26637815 15534
RS23S (SXC3-21 UTMN)    
1 53376U 22096G   22323.20372882  .00010557  00000+0  40455-3 0  9995
2 53376  97.4273 223.9910 0002638 107.6291  44.3483 15.26701252 15530
RS28S (SXC3-214 MIET-A*)
1 53377U 22096H   22323.06455390  .00009649  00000+0  37057-3 0  9990
2 53377  97.4274 223.8564 0002588 105.7838   7.9166 15.26656090 15516
RS26S (KAI-1)           
1 53378U 22096J   22323.20588508  .00008845  00000+0  34167-3 0  9991
2 53378  97.4275 223.9882 0002796 105.2472  46.4237 15.26487571 15537
RS19S (SXC3-219 ISOI)   
1 53381U 22096M   22323.16995125  .00009923  00000+0  37503-3 0  9992
2 53381  97.4276 224.0310 0006340  86.4524  54.7698 15.27164788 15533
RS21S (CUBESX-HSE-2)    
1 53383U 22096P   22323.09557054  .00010328  00000+0  38973-3 0  9994
2 53383  97.4279 223.9657 0006587  85.4144  21.9975 15.27204501 15521
RS30S (SXC3-217 SIREN)  
1 53384U 22096Q   22323.23818007  .00009303  00000+0  35275-3 0  9992
2 53384  97.4276 224.1007 0006442  84.3035  77.3827 15.27074962 15547
RS20S (GEOSCAN-EDELVEIS)
1 53385U 22096R   22323.07205700  .00012874  00000+0  47520-3 0  9998
2 53385  97.4272 223.9956 0007017  83.2122  29.3887 15.27872342 15550
RS33S (SXC3-215 VIZARD) 
1 53386U 22096S   22323.10854946  .00015147  00000+0  54610-3 0  9999
2 53386  97.4272 224.0965 0007908  85.1974  20.5538 15.28602450 15556
